TIANHUI 7               
1 67300U 25314A   26020.93104818  .00004960  00000+0  19817-3 0  9992
2 67300  97.4187  97.9671 0001561 100.1824 259.9591 15.25587940  3337
CZ-4B R/B               
1 67301U 25314B   26028.93214655  .00162322  10109-4  69979-3 0  9999
2 67301  97.3704 107.7213 0129221 266.1558  92.4924 15.73260986  4630
CZ-7A R/B               
1 67303U 25315B   26028.06765080  .00076945  88420-6  25900-2 0  9992
2 67303  19.6123  88.5996 7173916 200.8351 100.3796  2.45902195   699
CSG-3                   
1 67304U 26001A   26029.53283770 -.00005774  00000+0 -71320-3 0  9993
2 67304  97.8571 215.1492 0001493  74.6521 285.4857 14.82515825  3929
STARLINK-36490          
1 67305U 26002A   26029.50003471 -.00075866  00000+0 -12981-2 0  9996
2 67305  42.9995 188.2744 0002192 277.2638 167.2465 15.50616541  5172
STARLINK-36488          
1 67306U 26002B   26029.50003471 -.00096279  00000+0 -16534-2 0  9996
2 67306  42.9993 188.2699 0001535 274.7190 171.7342 15.50614207  5110
STARLINK-36481          
1 67307U 26002C   26029.50003471 -.00031327  00000+0 -52997-3 0  9994
2 67307  42.9993 188.2600 0002201 280.7026 169.5477 15.50593731  5122
STARLINK-36449          
1 67308U 26002D   26029.50003471 -.00029445  00000+0 -49769-3 0  9996
2 67308  42.9992 188.2549 0002194 280.5452 171.6210 15.50592111  5171
STARLINK-36482          
1 67309U 26002E   26029.50003471  .00031604  00000+0  54289-3 0  9998
2 67309  42.9990 188.2321 0002188 279.6912 182.0640 15.50549955  5127
STARLINK-36491          
1 67310U 26002F   26029.50003471 -.00077231  00000+0 -13225-2 0  9992
2 67310  42.9991 188.2659 0001610 277.6050 170.7686 15.50601780  5112
STARLINK-36495          
1 67311U 26002G   26029.50003471 -.00065216  00000+0 -11137-2 0  9993
2 67311  42.9994 188.2508 0002155 281.6078 172.4828 15.50610798  5272
